STARLINK-34691          
1 65691U 25212R   25285.91671296 -.02008544  00000+0 -32213-1 0  9998
2 65691  53.1597 311.9199 0001299  90.1582 145.0039 15.55567854  4645
STARLINK-34825          
1 65692U 25212S   25285.91671296 -.00097482  00000+0 -17632-2 0  9995
2 65692  53.1587 313.0536 0001248 105.1764 300.6276 15.49363241  4645
STARLINK-35060          
1 65693U 25212T   25285.91671296 -.02008685  00000+0 -32216-1 0  9999
2 65693  53.1600 311.9156 0001455  87.1530 149.9285 15.55565808  4641
STARLINK-35204          
1 65694U 25212U   25285.91671296 -.00056940  00000+0 -10218-2 0  9994
2 65694  53.1591 313.0418 0001324 103.8578 307.6775 15.49345495  4657
STARLINK-35221          
1 65695U 25212V   25285.91671296 -.00060360  00000+0 -10841-2 0  9998
2 65695  53.1592 313.0366 0001394 105.4228 308.0327 15.49346789  4653
STARLINK-34734          
1 65696U 25212W   25285.91671296 -.00049513  00000+0 -88801-3 0  9998
2 65696  53.1588 313.0334 0001110  96.4693 318.9884 15.49302930  4642
STARLINK-35113          
1 65697U 25212X   25285.91671296 -.00056994  00000+0 -10243-2 0  9994
2 65697  53.1591 313.0293 0001079  96.8486 320.5249 15.49306283  4648
STARLINK-35090          
1 65698U 25212Y   25285.19654817  .00069426  00000+0  11772-2 0  9995
2 65698  53.1590 316.4688 0005127 218.2333 141.8314 15.50888987  4490
STARLINK-35086          
1 65699U 25212Z   25285.91671296  .00061259  00000+0  11019-2 0  9996
2 65699  53.1589 313.0172 0001438 104.8487 318.1928 15.49281569  4548
STARLINK-35101          
1 65700U 25212AA  25285.91671296 -.00095122  00000+0 -17222-2 0  9999
2 65700  53.1591 313.0210 0001220  94.6217 326.5900 15.49323163  4543
STARLINK-35046          
1 65701U 25212AB  25285.91671296 -.00078767  00000+0 -14200-2 0  9999
2 65701  53.1591 313.0131 0001254 103.2348 321.7217 15.49357965  4641
STARLINK-35075          
1 65702U 25212AC  25285.91671296 -.00039537  00000+0 -70569-3 0  9993
2 65702  53.1592 313.0092 0001236 103.6324 323.2376 15.49336938  4647
STARLINK-34839          
1 65703U 25212AD  25285.91671296  .00068219  00000+0  12252-2 0  9995
2 65703  53.1590 313.0050 0001420 102.0922 326.6968 15.49278791  4648
STARLINK-34086          
1 65734U 25216A   25285.91671296 -.01926695  00000+0 -24518-1 0  9994
2 65734  53.1599 302.6443 0001042  88.8461 197.3938 15.62016839  3793
STARLINK-35099          
1 65735U 25216B   25285.91671296 -.01932985  00000+0 -24604-1 0  9990
2 65735  53.1595 302.6395 0001076  94.9666 193.1888 15.62021311  3843
STARLINK-35167          
1 65736U 25216C   25285.91671296 -.01927030  00000+0 -24521-1 0  9994
2 65736  53.1593 302.6358 0001184  94.8997 195.1741 15.62016913  3906
STARLINK-35121          
1 65737U 25216D   25285.91671296 -.01927778  00000+0 -24530-1 0  9994
2 65737  53.1595 302.6312 0001207  92.5717 199.4165 15.62018479  3906
STARLINK-35108          
1 65738U 25216E   25285.91671296 -.01926966  00000+0 -24520-1 0  9992
2 65738  53.1596 302.6279 0001201  92.4054 201.5010 15.62017207  3954
STARLINK-35106          
1 65739U 25216F   25285.91671296 -.01926231  00000+0 -24510-1 0  9997
2 65739  53.1597 302.6232 0001135  87.4190 208.4027 15.62017490  3842
STARLINK-35130          
1 65740U 25216G   25285.91671296 -.01925449  00000+0 -24500-1 0  9998
2 65740  53.1600 302.6191 0001203  95.7887 201.9531 15.62015736  3955
STARLINK-35284          
1 65741U 25216H   25285.91671296 -.01922901  00000+0 -24466-1 0  9990
2 65741  53.1598 302.6150 0001151  90.6074 209.0529 15.62013264  3906
STARLINK-35316          
1 65742U 25216J   25285.91671296 -.01921753  00000+0 -24451-1 0  9999
2 65742  53.1597 302.6111 0001046  89.1513 212.4255 15.62012805  3901
STARLINK-35319          
1 65743U 25216K   25285.91671296 -.01933827  00000+0 -24615-1 0  9997
2 65743  53.1596 302.6081 0001068  92.1440 211.3448 15.62022233  3957
STARLINK-35173          
1 65744U 25216L   25285.91671296 -.01926454  00000+0 -24515-1 0  9995
2 65744  53.1601 302.6032 0001085  87.2721 218.1366 15.62016264  3958
STARLINK-34808          
1 65745U 25216M   25285.91671296 -.01935673  00000+0 -24642-1 0  9990
2 65745  53.1597 302.5995 0000855  84.2642 223.0568 15.62025015  3877
STARLINK-34704          
1 65746U 25216N   25285.91671296 -.01929787  00000+0 -24560-1 0  9999
2 65746  53.1595 302.5914 0001058  93.2830 217.8743 15.62019655  3893
STARLINK-35214          
1 65747U 25216P   25285.91671296 -.01922783  00000+0 -24464-1 0  9992
2 65747  53.1598 302.5954 0001105  88.4921 220.7509 15.62013988  3909
STARLINK-35265          
1 65748U 25216Q   25285.91671296 -.01928772  00000+0 -24544-1 0  9996
2 65748  53.1593 302.5836 0001084  94.5771 220.4116 15.62020162  3904
STARLINK-35288          
1 65749U 25216R   25285.91671296 -.01927381  00000+0 -24526-1 0  9992
2 65749  53.1595 302.5788 0001070  90.1529 226.7539 15.62018588  3841
STARLINK-35165          
1 65750U 25216S   25285.91671296 -.01919940  00000+0 -24426-1 0  9995
2 65750  53.1596 302.5715 0001043  83.6933 237.0521 15.62011315  3847
STARLINK-35260          
1 65751U 25216T   25285.91671296 -.01925295  00000+0 -24498-1 0  9995
2 65751  53.1597 302.5665 0001001  82.8268 239.8331 15.62016874  3900
STARLINK-34893          
1 65752U 25216U   25285.91671296 -.01924314  00000+0 -24485-1 0  9993
2 65752  53.1594 302.5873 0001136  92.8356 220.2416 15.62014636  3796
STARLINK-34894          
1 65753U 25216V   25285.91671296 -.01923346  00000+0 -24471-1 0  9993
2 65753  53.1598 302.5751 0001147  92.6526 226.1748 15.62014303  3878
STARLINK-35287          
1 65754U 25216W   25285.91671296 -.01931565  00000+0 -24586-1 0  9993
2 65754  53.1597 302.5601 0001032  89.9270 236.5668 15.62019426  3798
STARLINK-35294          
1 65755U 25216X   25285.91671296 -.01928749  00000+0 -24549-1 0  9993
2 65755  53.1596 302.5647 0000899  82.4072 242.1735 15.62016551  3903
STARLINK-35275          
1 65756U 25216Y   25285.91671296 -.01928393  00000+0 -24539-1 0  9998
2 65756  53.1596 302.5475 0001062  87.9120 244.3280 15.62020176  3907
STARLINK-35211          
1 65757U 25216Z   25285.91671296 -.01926364  00000+0 -24512-1 0  9996
2 65757  53.1595 302.5431 0001067  86.3152 247.8427 15.62018198  3904
STARLINK-35313          
1 65758U 25216AA  25285.91671296 -.01929107  00000+0 -24549-1 0  9995
2 65758  53.1598 302.5397 0001029  84.8632 251.2090 15.62021268  3797
STARLINK-34692          
1 65759U 25216AB  25285.91671296 -.01926724  00000+0 -24518-1 0  9994
2 65759  53.1601 302.5348 0001044  84.7640 253.2294 15.62017682  3876
STARLINK-34890          
1 65760U 25216AC  25285.91671296 -.01935431  00000+0 -24639-1 0  9995
2 65760  53.1598 302.5564 0000939  86.5709 241.8395 15.62022883  3897
STARLINK-34889          
1 65761U 25216AD  25285.91671296 -.01925624  00000+0 -24503-1 0  9999
2 65761  53.1597 302.5511 0001068  86.5387 243.7879 15.62016424  3954
STARLINK-35330          
1 65791U 25218A   25285.91671296 -.02270364  00000+0 -41346-1 0  9993
2 65791  97.6031 146.1450 0002229  99.2965 144.0053 15.53025924  3895
STARLINK-35373          
1 65792U 25218B   25285.91671296 -.02277286  00000+0 -41486-1 0  9999
2 65792  97.6030 146.1469 0002215  96.3094 148.9138 15.53028510  3892
STARLINK-35383          
1 65793U 25218C   25285.91671296 -.02353787  00000+0 -43009-1 0  9994
2 65793  97.6054 146.1458 0002274 112.3436 136.7116 15.53071999  3891
STARLINK-35378          
1 65794U 25218D   25285.91671296 -.02283588  00000+0 -41611-1 0  9993
2 65794  97.6028 146.1488 0002399  99.8787 151.1060 15.53030392  3635
STARLINK-35406          
1 65795U 25218E   25285.91671296 -.02268939  00000+0 -41317-1 0  9990
2 65795  97.6031 146.1473 0002183  97.4076 149.7343 15.53026573  3891
STARLINK-35390          
1 65796U 25218F   25285.91671296 -.02252628  00000+0 -40994-1 0  9999
2 65796  97.6032 146.1520 0002114  95.9727 158.8554 15.53017618  3789
STARLINK-35412          
1 65797U 25218G   25285.91671296 -.02347361  00000+0 -42882-1 0  9997
2 65797  97.6055 146.1484 0002125 111.1474 145.5919 15.53069352  3898
STARLINK-35414          
1 65798U 25218H   25285.91671296 -.02353673  00000+0 -43006-1 0  9990
2 65798  97.6055 146.1481 0002258 111.5530 141.3425 15.53073004  3895
STARLINK-35357          
1 65799U 25218J   25285.91671296 -.02345000  00000+0 -42834-1 0  9994
2 65799  97.6055 146.1500 0002098 109.2137 151.3660 15.53069148  3893
STARLINK-35300          
1 65800U 25218K   25285.91671296 -.02263005  00000+0 -41203-1 0  9990
2 65800  97.6028 146.1514 0002183  99.7987 158.8717 15.53020799  3740
STARLINK-35296          
1 65801U 25218L   25285.91671296 -.02344617  00000+0 -42823-1 0  9999
2 65801  97.6055 146.1514 0002100 109.5655 154.8531 15.53070496  3897
STARLINK-34919          
1 65802U 25218M   25285.91671296 -.02345252  00000+0 -42841-1 0  9996
2 65802  97.6055 146.1507 0002057 110.1159 152.3865 15.53068440  3897
STARLINK-35286          
1 65803U 25218N   25285.91671296 -.02340170  00000+0 -42738-1 0  9996
2 65803  97.6055 146.1522 0002071 110.7498 155.5934 15.53065834  3899
STARLINK-35266          
1 65804U 25218P   25285.91671296 -.02339082  00000+0 -42717-1 0  9994
2 65804  97.6056 146.1534 0002024 108.2233 160.0405 15.53065408  3892
STARLINK-35273          
1 65805U 25218Q   25285.91671296 -.02335487  00000+0 -42648-1 0  9993
2 65805  97.6056 146.1535 0002026 110.8780 159.3089 15.53061632  3896
STARLINK-35047          
1 65806U 25218R   25285.91671296 -.02335468  00000+0 -42647-1 0  9992
2 65806  97.6056 146.1552 0001928 108.0807 165.9447 15.53063320  3892
STARLINK-35285          
1 65807U 25218S   25285.91671296 -.02338689  00000+0 -42709-1 0  9990
2 65807  97.6056 146.1547 0001997 106.9592 165.1448 15.53065916  3897
STARLINK-34580          
1 65808U 25218T   25285.91671296 -.02334623  00000+0 -42631-1 0  9999
2 65808  97.6056 146.1568 0001940 108.0260 167.9205 15.53062221  3891
